[
  {
    "nickname": "Home",
    "city": "Tel Aviv",
    "street": "Rothschild Boulevard",
    "houseNum": 10,
    "apartmentNum": 5,
    "postalCode": 12345
  },
  {
    "nickname": "Gali's house",
    "city": "Jerusalem",
    "street": "Jaffa Street",
    "houseNum": 20,
    "apartmentNum": 3,
    "postalCode": 67890
  },
  {
    "nickname": "Mommy",
    "city": "Haifa",
    "street": "Herzl Street",
    "houseNum": 15,
    "apartmentNum": 8,
    "postalCode": 45678
  },
  {
    "nickname": "My Love",
    "city": "Tel Aviv",
    "street": "Dizengoff Street",
    "houseNum": 30,
    "apartmentNum": 12,
    "postalCode": 23456
  },
  {
    "nickname": "House",
    "city": "Netanya",
    "street": "Hadarim Road",
    "houseNum": 25,
    "apartmentNum": 4,
    "postalCode": 34567
  },
  {
    "nickname": "Aunt",
    "city": "Jerusalem",
    "street": "King George Street",
    "houseNum": 40,
    "apartmentNum": 6,
    "postalCode": 56789
  },
  {
    "nickname": "Home",
    "city": "Haifa",
    "street": "Balfour Street",
    "houseNum": 12,
    "apartmentNum": 9,
    "postalCode": 78901
  },
  {
    "nickname": "My Love",
    "city": "Tel Aviv",
    "street": "Ben Yehuda Street",
    "houseNum": 22,
    "apartmentNum": 2,
    "postalCode": 89012
  },
  {
    "nickname": "Home",
    "city": "Eilat",
    "street": "Dolphin Street",
    "houseNum": 8,
    "apartmentNum": 14,
    "postalCode": 90123
  },
  {
    "nickname": "House",
    "city": "Herzliya",
    "street": "Ramat Yam Street",
    "houseNum": 16,
    "apartmentNum": 7,
    "postalCode": 12340
  },
  {
    "nickname": "Home",
    "city": "Tel Aviv",
    "street": "Allenby Street",
    "houseNum": 6,
    "apartmentNum": 3,
    "postalCode": 23450
  },
  {
    "nickname": "Michal's house",
    "city": "Jerusalem",
    "street": "Mamilla Street",
    "houseNum": 14,
    "apartmentNum": 9,
    "postalCode": 34560
  },
  {
    "nickname": "Mommy",
    "city": "Haifa",
    "street": "Sderot HaNasi",
    "houseNum": 18,
    "apartmentNum": 5,
    "postalCode": 45670
  },
  {
    "nickname": "My Love",
    "city": "Netanya",
    "street": "Nordau Street",
    "houseNum": 26,
    "apartmentNum": 12,
    "postalCode": 56780
  },
  {
    "nickname": "House",
    "city": "Tel Aviv",
    "street": "Rabin Square",
    "houseNum": 32,
    "apartmentNum": 4,
    "postalCode": 67890
  },
  {
    "nickname": "Anat - Aunt",
    "city": "Jerusalem",
    "street": "Emek Refaim Street",
    "houseNum": 38,
    "apartmentNum": 6,
    "postalCode": 78900
  },
  {
    "nickname": "Home",
    "city": "Haifa",
    "street": "Hadar Street",
    "houseNum": 20,
    "apartmentNum": 3,
    "postalCode": 89010
  },
  {
    "nickname": "My Love",
    "city": "Tiberias",
    "street": "Waterfront Road",
    "houseNum": 12,
    "apartmentNum": 8,
    "postalCode": 90120
  },
  {
    "nickname": "House",
    "city": "Tel Aviv",
    "street": "Bograshov Street",
    "houseNum": 6,
    "apartmentNum": 14,
    "postalCode": 12345
  },
  {
    "nickname": "Emma's house",
    "city": "Herzliya",
    "street": "Marina Boulevard",
    "houseNum": 24,
    "apartmentNum": 5,
    "postalCode": 23456
  }
]